{
  "type": "FeatureCollection",
  "features": [
    {
      "type": "Feature",
      "properties": {
        "norad_id": 39617,
        "name": "ASTRA 5B (EGNOS/PRN 123)",
        "group": "gnss",
        "lat": 0.06991250280069482,
        "lon": 92.73896685700605,
        "alt_km": 35802.25791092822,
        "timestamp": "2025-12-19T22:41:52.634018+00:00",
        "meta_object_name": "ASTRA 5B (EGNOS/PRN 123)",
        "meta_object_id": "2014-011B",
        "meta_epoch": "2025-12-19T08:14:11.812992",
        "meta_mean_motion": 1.00270469,
        "meta_eccentricity": 0.000384,
        "meta_inclination": 0.0428,
        "meta_ra_of_asc_node": 356.5201,
        "meta_arg_of_pericenter": 263.6104,
        "meta_mean_anomaly": 335.117,
        "meta_ephemeris_type": 0,
        "meta_classification_type": "U",
        "meta_norad_cat_id": 39617,
        "meta_element_set_no": 999,
        "meta_rev_at_epoch": 4286,
        "meta_bstar": 0,
        "meta_mean_motion_dot": 1.62e-06,
        "meta_mean_motion_ddot": 0,
        "tle_line1": "1 39617U 14011B   25353.34319228  .00000162  00000+0  00000+0 0  9990",
        "tle_line2": "2 39617   0.0428 356.5201 0003840 263.6104 335.1170  1.00270469 42860"
      },
      "geometry": {
        "type": "Point",
        "coordinates": [
          92.73896685700605,
          0.06991250280069482
        ]
      }
    },
    {
      "type": "Feature",
      "properties": {
        "norad_id": 39620,
        "name": "COSMOS 2492 (754)",
        "group": "gnss",
        "lat": -61.92239905632195,
        "lon": -160.86358840082266,
        "alt_km": 19116.138427467722,
        "timestamp": "2025-12-19T22:41:52.634030+00:00",
        "meta_object_name": "COSMOS 2492 (754)",
        "meta_object_id": "2014-012A",
        "meta_epoch": "2025-12-18T04:53:42.056736",
        "meta_mean_motion": 2.13103354,
        "meta_eccentricity": 0.0014217,
        "meta_inclination": 65.4043,
        "meta_ra_of_asc_node": 320.0846,
        "meta_arg_of_pericenter": 312.4931,
        "meta_mean_anomaly": 47.3782,
        "meta_ephemeris_type": 0,
        "meta_classification_type": "U",
        "meta_norad_cat_id": 39620,
        "meta_element_set_no": 999,
        "meta_rev_at_epoch": 9138,
        "meta_bstar": 0,
        "meta_mean_motion_dot": -6.4e-07,
        "meta_mean_motion_ddot": 0,
        "tle_line1": "1 39620U 14012A   25352.20395899 -.00000064  00000+0  00000+0 0  9999",
        "tle_line2": "2 39620  65.4043 320.0846 0014217 312.4931  47.3782  2.13103354 91389"
      },
      "geometry": {
        "type": "Point",
        "coordinates": [
          -160.86358840082266,
          -61.92239905632195
        ]
      }
    },
    {
      "type": "Feature",
      "properties": {
        "norad_id": 39635,
        "name": "IRNSS-1B",
        "group": "gnss",
        "lat": -25.311703155947487,
        "lon": 121.10616570649091,
        "alt_km": 35711.24265138235,
        "timestamp": "2025-12-19T22:41:52.634043+00:00",
        "meta_object_name": "IRNSS-1B",
        "meta_object_id": "2014-017A",
        "meta_epoch": "2025-12-18T18:41:36.288672",
        "meta_mean_motion": 1.00270486,
        "meta_eccentricity": 0.00188687,
        "meta_inclination": 29.2555,
        "meta_ra_of_asc_node": 243.5019,
        "meta_arg_of_pericenter": 250.2597,
        "meta_mean_anomaly": 289.6629,
        "meta_ephemeris_type": 0,
        "meta_classification_type": "U",
        "meta_norad_cat_id": 39635,
        "meta_element_set_no": 999,
        "meta_rev_at_epoch": 4298,
        "meta_bstar": 0,
        "meta_mean_motion_dot": 1.5e-06,
        "meta_mean_motion_ddot": 0,
        "tle_line1": "1 39635U 14017A   25352.77889223  .00000150  00000+0  00000+0 0  9996",
        "tle_line2": "2 39635  29.2555 243.5019 0018868 250.2597 289.6629  1.00270486 42984"
      },
      "geometry": {
        "type": "Point",
        "coordinates": [
          121.10616570649091,
          -25.311703155947487
        ]
      }
    },
    {
      "type": "Feature",
      "properties": {
        "norad_id": 39727,
        "name": "LUCH 5V (SDCM/PRN 141)",
        "group": "gnss",
        "lat": 4.690990137264193,
        "lon": 163.8712173708029,
        "alt_km": 35796.212907363566,
        "timestamp": "2025-12-19T22:41:52.634072+00:00",
        "meta_object_name": "LUCH 5V (SDCM/PRN 141)",
        "meta_object_id": "2014-023A",
        "meta_epoch": "2025-12-19T17:07:14.606400",
        "meta_mean_motion": 1.00267053,
        "meta_eccentricity": 0.000432,
        "meta_inclination": 4.6856,
        "meta_ra_of_asc_node": 71.4767,
        "meta_arg_of_pericenter": 213.4503,
        "meta_mean_anomaly": 155.0982,
        "meta_ephemeris_type": 0,
        "meta_classification_type": "U",
        "meta_norad_cat_id": 39727,
        "meta_element_set_no": 999,
        "meta_rev_at_epoch": 4256,
        "meta_bstar": 0,
        "meta_mean_motion_dot": -2.47e-06,
        "meta_mean_motion_ddot": 0,
        "tle_line1": "1 39727U 14023A   25353.71336350 -.00000247  00000+0  00000+0 0  9996",
        "tle_line2": "2 39727   4.6856  71.4767 0004320 213.4503 155.0982  1.00267053 42569"
      },
      "geometry": {
        "type": "Point",
        "coordinates": [
          163.8712173708029,
          4.690990137264193
        ]
      }
    },
    {
      "type": "Feature",
      "properties": {
        "norad_id": 39741,
        "name": "GPS BIIF-6  (PRN 06)",
        "group": "gnss",
        "lat": -16.252128330998488,
        "lon": -32.612691433589646,
        "alt_km": 20087.450674940796,
        "timestamp": "2025-12-19T22:41:52.634085+00:00",
        "meta_object_name": "GPS BIIF-6  (PRN 06)",
        "meta_object_id": "2014-026A",
        "meta_epoch": "2025-12-18T23:24:45.525888",
        "meta_mean_motion": 2.00561009,
        "meta_eccentricity": 0.00393411,
        "meta_inclination": 56.5812,
        "meta_ra_of_asc_node": 338.5339,
        "meta_arg_of_pericenter": 319.0443,
        "meta_mean_anomaly": 40.6665,
        "meta_ephemeris_type": 0,
        "meta_classification_type": "U",
        "meta_norad_cat_id": 39741,
        "meta_element_set_no": 999,
        "meta_rev_at_epoch": 8492,
        "meta_bstar": 0,
        "meta_mean_motion_dot": -8.1e-07,
        "meta_mean_motion_ddot": 0,
        "tle_line1": "1 39741U 14026A   25352.97552692 -.00000081  00000+0  00000+0 0  9997",
        "tle_line2": "2 39741  56.5812 338.5339 0039341 319.0443  40.6665  2.00561009 84924"
      },
      "geometry": {
        "type": "Point",
        "coordinates": [
          -32.612691433589646,
          -16.252128330998488
        ]
      }
    },
    {
      "type": "Feature",
      "properties": {
        "norad_id": 40001,
        "name": "COSMOS 2500 (755)",
        "group": "gnss",
        "lat": 48.801908520418046,
        "lon": 108.12947053749873,
        "alt_km": 19125.7919480683,
        "timestamp": "2025-12-19T22:41:52.634096+00:00",
        "meta_object_name": "COSMOS 2500 (755)",
        "meta_object_id": "2014-032A",
        "meta_epoch": "2025-12-19T07:33:00.956160",
        "meta_mean_motion": 2.13106226,
        "meta_eccentricity": 0.0007806,
        "meta_inclination": 65.3396,
        "meta_ra_of_asc_node": 319.8089,
        "meta_arg_of_pericenter": 219.2703,
        "meta_mean_anomaly": 140.6644,
        "meta_ephemeris_type": 0,
        "meta_classification_type": "U",
        "meta_norad_cat_id": 40001,
        "meta_element_set_no": 999,
        "meta_rev_at_epoch": 8962,
        "meta_bstar": 0,
        "meta_mean_motion_dot": -5.9e-07,
        "meta_mean_motion_ddot": 0,
        "tle_line1": "1 40001U 14032A   25353.31459440 -.00000059  00000+0  00000+0 0  9996",
        "tle_line2": "2 40001  65.3396 319.8089 0007806 219.2703 140.6644  2.13106226 89625"
      },
      "geometry": {
        "type": "Point",
        "coordinates": [
          108.12947053749873,
          48.801908520418046
        ]
      }
    },
    {
      "type": "Feature",
      "properties": {
        "norad_id": 40105,
        "name": "GPS BIIF-7  (PRN 09)",
        "group": "gnss",
        "lat": -54.42721097265727,
        "lon": 19.729060314658454,
        "alt_km": 20267.28348815119,
        "timestamp": "2025-12-19T22:41:52.634108+00:00",
        "meta_object_name": "GPS BIIF-7  (PRN 09)",
        "meta_object_id": "2014-045A",
        "meta_epoch": "2025-12-18T01:34:21.644256",
        "meta_mean_motion": 2.00572958,
        "meta_eccentricity": 0.00325491,
        "meta_inclination": 55.2322,
        "meta_ra_of_asc_node": 95.6864,
        "meta_arg_of_pericenter": 120.0469,
        "meta_mean_anomaly": 240.2601,
        "meta_ephemeris_type": 0,
        "meta_classification_type": "U",
        "meta_norad_cat_id": 40105,
        "meta_element_set_no": 999,
        "meta_rev_at_epoch": 8244,
        "meta_bstar": 0,
        "meta_mean_motion_dot": -3.8e-07,
        "meta_mean_motion_ddot": 0,
        "tle_line1": "1 40105U 14045A   25352.06552829 -.00000038  00000+0  00000+0 0  9998",
        "tle_line2": "2 40105  55.2322  95.6864 0032549 120.0469 240.2601  2.00572958 82445"
      },
      "geometry": {
        "type": "Point",
        "coordinates": [
          19.729060314658454,
          -54.42721097265727
        ]
      }
    }
  ]
}